"{\n    \"CCSDS_OMM_VERS\": \"2.0\",\n    \"COMMENT\": \"GENERATED VIA SPACE-TRACK.ORG API\",\n    \"CREATION_DATE\": \"2025-08-31T11:35:43\",\n    \"ORIGINATOR\": \"18 SPCS\",\n    \"OBJECT_NAME\": \"GALILEO 27 (223)\",\n    \"OBJECT_ID\": \"2021-116A\",\n    \"CENTER_NAME\": \"EARTH\",\n    \"REF_FRAME\": \"TEME\",\n    \"TIME_SYSTEM\": \"UTC\",\n    \"MEAN_ELEMENT_THEORY\": \"SGP4\",\n    \"EPOCH\": \"2025-08-31T05:38:37.574304\",\n    \"MEAN_MOTION\": \"1.7047659521\",\n    \"ECCENTRICITY\": \"0.00034325884\",\n    \"INCLINATION\": \"57.245049\",\n    \"RA_OF_ASC_NODE\": \"349.51054\",\n    \"ARG_OF_PERICENTER\": \"203.02664\",\n    \"MEAN_ANOMALY\": \"166.88984\",\n    \"EPHEMERIS_TYPE\": \"0\",\n    \"CLASSIFICATION_TYPE\": \"U\",\n    \"NORAD_CAT_ID\": \"49809\",\n    \"ELEMENT_SET_NO\": \"999\",\n    \"REV_AT_EPOCH\": \"2324\",\n    \"BSTAR\": \"0\",\n    \"MEAN_MOTION_DOT\": \"-0.000000942968\",\n    \"MEAN_MOTION_DDOT\": \"0\",\n    \"TLE_LINE0\": \"0 GALILEO 27 (223)\",\n    \"TLE_LINE1\": \"1 49809U 21116A   25243.23515711 -.00000094  00000-0  00000-0 0  9996\",\n    \"TLE_LINE2\": \"2 49809  57.2450 349.5105 0003433 203.0266 166.8898  1.70476595 23245\",\n    \"SEMIMAJOR_AXIS\": \"29600.020\",\n    \"PERIOD\": \"844.691\",\n    \"APOAPSIS\": \"23232.045\",\n    \"PERIAPSIS\": \"23211.724\",\n    \"OBJECT_TYPE\": \"PAYLOAD\",\n    \"DECAYED\": \"0\"\n}"